{"type": "FeatureCollection", "features": [ {"type": "Feature", "properties": {"norad_id": 31057, "name": "FENGYUN 1C DEB", "group": "fengyun-1c-debris", "lat": -8.235585413595267, "lon": -150.6821803877174, "alt_km": 574.1908906513745, "timestamp": "2025-12-16T15:45:51.326580+00:00", "meta": {"OBJECT_NAME": "FENGYUN 1C DEB", "OBJECT_ID": "1999-025BFB", "EPOCH": "2025-12-07T08:31:09.738912", "MEAN_MOTION": 14.79274467, "ECCENTRICITY": 0.0137797, "INCLINATION": 99.2572, "RA_OF_ASC_NODE": 19.9678, "ARG_OF_PERICENTER": 268.7892, "MEAN_ANOMALY": 89.7526, "EPHEMERIS_TYPE": 0, "CLASSIFICATION_TYPE": "U", "NORAD_CAT_ID": 31057, "ELEMENT_SET_NO": 999, "REV_AT_EPOCH": 61873, "BSTAR": 0.0014079461, "MEAN_MOTION_DOT": 0.00012236, "MEAN_MOTION_DDOT": 0}, "tle": {"line1": "1 31057U 99025BFB 25341.35497383  .00012236  00000+0  14079-2 0  9994", "line2": "2 31057  99.2572  19.9678 0137797 268.7892  89.7526 14.79274467618731"}}, "geometry": {"type": "Point", "coordinates": [-150.6821803877174, -8.235585413595267]}}, {"type": "Feature", "properties": {"norad_id": 31058, "name": "FENGYUN 1C DEB", "group": "fengyun-1c-debris", "lat": -48.44474284232148, "lon": -48.38472981508101, "alt_km": 700.7695656746519, "timestamp": "2025-12-16T15:45:51.326590+00:00", "meta": {"OBJECT_NAME": "FENGYUN 1C DEB", "OBJECT_ID": "1999-025BFC", "EPOCH": "2025-12-13T01:46:58.731168", "MEAN_MOTION": 14.76336624, "ECCENTRICITY": 0.00951509, "INCLINATION": 99.5659, "RA_OF_ASC_NODE": 296.4111, "ARG_OF_PERICENTER": 105.1119, "MEAN_ANOMALY": 256.0635, "EPHEMERIS_TYPE": 0, "CLASSIFICATION_TYPE": "U", "NORAD_CAT_ID": 31058, "ELEMENT_SET_NO": 999, "REV_AT_EPOCH": 99554, "BSTAR": 0.0017482376, "MEAN_MOTION_DOT": 0.00013017, "MEAN_MOTION_DDOT": 0}, "tle": {"line1": "1 31058U 99025BFC 25347.07429087  .00013017  00000+0  17482-2 0  9995", "line2": "2 31058  99.5659 296.4111 0095150 105.1119 256.0635 14.76336624995545"}}, "geometry": {"type": "Point", "coordinates": [-48.38472981508101, -48.44474284232148]}}, {"type": "Feature", "properties": {"norad_id": 31062, "name": "FENGYUN 1C DEB", "group": "fengyun-1c-debris", "lat": 37.529794171275654, "lon": -0.18191633185528974, "alt_km": 1098.497528371082, "timestamp": "2025-12-16T15:45:51.326600+00:00", "meta": {"OBJECT_NAME": "FENGYUN 1C DEB", "OBJECT_ID": "1999-025BFG", "EPOCH": "2025-12-15T11:16:51.741984", "MEAN_MOTION": 13.75693302, "ECCENTRICITY": 0.01715187, "INCLINATION": 98.9965, "RA_OF_ASC_NODE": 171.7077, "ARG_OF_PERICENTER": 310.5963, "MEAN_ANOMALY": 77.2553, "EPHEMERIS_TYPE": 0, "CLASSIFICATION_TYPE": "U", "NORAD_CAT_ID": 31062, "ELEMENT_SET_NO": 999, "REV_AT_EPOCH": 94271, "BSTAR": 0.0002988019, "MEAN_MOTION_DOT": 2.79e-06, "MEAN_MOTION_DDOT": 0}, "tle": {"line1": "1 31062U 99025BFG 25349.47004331  .00000279  00000+0  29880-3 0  9999", "line2": "2 31062  98.9965 171.7077 0171518 310.5963  77.2553 13.75693302942711"}}, "geometry": {"type": "Point", "coordinates": [-0.18191633185528974, 37.529794171275654]}}, {"type": "Feature", "properties": {"norad_id": 31064, "name": "FENGYUN 1C DEB", "group": "fengyun-1c-debris", "lat": -45.95259262109286, "lon": 144.26464102825355, "alt_km": 918.3336306734673, "timestamp": "2025-12-16T15:45:51.326610+00:00", "meta": {"OBJECT_NAME": "FENGYUN 1C DEB", "OBJECT_ID": "1999-025BFJ", "EPOCH": "2025-12-14T22:18:03.510720", "MEAN_MOTION": 14.22139925, "ECCENTRICITY": 0.02413906, "INCLINATION": 98.5739, "RA_OF_ASC_NODE": 331.556, "ARG_OF_PERICENTER": 355.2741, "MEAN_ANOMALY": 33.6089, "EPHEMERIS_TYPE": 0, "CLASSIFICATION_TYPE": "U", "NORAD_CAT_ID": 31064, "ELEMENT_SET_NO": 999, "REV_AT_EPOCH": 97286, "BSTAR": 0.00040345463, "MEAN_MOTION_DOT": 1.155e-05, "MEAN_MOTION_DDOT": 0}, "tle": {"line1": "1 31064U 99025BFJ 25348.92920730  .00001155  00000+0  40345-3 0  9993", "line2": "2 31064  98.5739 331.5560 0241390 355.2741  33.6089 14.22139925972865"}}, "geometry": {"type": "Point", "coordinates": [144.26464102825355, -45.95259262109286]}}, {"type": "Feature", "properties": {"norad_id": 31065, "name": "FENGYUN 1C DEB", "group": "fengyun-1c-debris", "lat": -62.5402887643145, "lon": 172.99037409300905, "alt_km": 823.078687700925, "timestamp": "2025-12-16T15:45:51.326622+00:00", "meta": {"OBJECT_NAME": "FENGYUN 1C DEB", "OBJECT_ID": "1999-025BFK", "EPOCH": "2025-12-13T07:35:59.491392", "MEAN_MOTION": 14.28179261, "ECCENTRICITY": 0.00351676, "INCLINATION": 98.4666, "RA_OF_ASC_NODE": 6.4073, "ARG_OF_PERICENTER": 29.7365, "MEAN_ANOMALY": 330.5806, "EPHEMERIS_TYPE": 0, "CLASSIFICATION_TYPE": "U", "NORAD_CAT_ID": 31065, "ELEMENT_SET_NO": 999, "REV_AT_EPOCH": 64586, "BSTAR": 0.0013755, "MEAN_MOTION_DOT": 3.406e-05, "MEAN_MOTION_DDOT": 0}, "tle": {"line1": "1 31065U 99025BFK 25347.31666078  .00003406  00000+0  13755-2 0  9993", "line2": "2 31065  98.4666   6.4073 0035167  29.7365 330.5806 14.28179261645865"}}, "geometry": {"type": "Point", "coordinates": [172.99037409300905, -62.5402887643145]}}, {"type": "Feature", "properties": {"norad_id": 31068, "name": "FENGYUN 1C DEB", "group": "fengyun-1c-debris", "lat": 14.019519499105401, "lon": -29.508932185935834, "alt_km": 866.8535599025836, "timestamp": "2025-12-16T15:45:51.326634+00:00", "meta": {"OBJECT_NAME": "FENGYUN 1C DEB", "OBJECT_ID": "1999-025BFN", "EPOCH": "2025-12-08T16:50:26.088576", "MEAN_MOTION": 14.0918717, "ECCENTRICITY": 0.01655633, "INCLINATION": 98.6287, "RA_OF_ASC_NODE": 325.0408, "ARG_OF_PERICENTER": 129.6248, "MEAN_ANOMALY": 231.9669, "EPHEMERIS_TYPE": 0, "CLASSIFICATION_TYPE": "U", "NORAD_CAT_ID": 31068, "ELEMENT_SET_NO": 999, "REV_AT_EPOCH": 96298, "BSTAR": 0.00020953749, "MEAN_MOTION_DOT": 3.73e-06, "MEAN_MOTION_DDOT": 0}, "tle": {"line1": "1 31068U 99025BFN 25342.70169084  .00000373  00000+0  20954-3 0  9999", "line2": "2 31068  98.6287 325.0408 0165563 129.6248 231.9669 14.09187170962988"}}, "geometry": {"type": "Point", "coordinates": [-29.508932185935834, 14.019519499105401]}}, {"type": "Feature", "properties": {"norad_id": 31069, "name": "FENGYUN 1C DEB", "group": "fengyun-1c-debris", "lat": -36.54543579139266, "lon": 158.1248281390436, "alt_km": 724.1659169346167, "timestamp": "2025-12-16T15:45:51.326644+00:00", "meta": {"OBJECT_NAME": "FENGYUN 1C DEB", "OBJECT_ID": "1999-025BFP", "EPOCH": "2025-12-15T06:58:24.353760", "MEAN_MOTION": 14.57126924, "ECCENTRICITY": 0.01044954, "INCLINATION": 99.0991, "RA_OF_ASC_NODE": 149.8113, "ARG_OF_PERICENTER": 69.7479, "MEAN_ANOMALY": 291.4914, "EPHEMERIS_TYPE": 0, "CLASSIFICATION_TYPE": "U", "NORAD_CAT_ID": 31069, "ELEMENT_SET_NO": 999, "REV_AT_EPOCH": 98723, "BSTAR": 0.00048052273, "MEAN_MOTION_DOT": 2.275e-05, "MEAN_MOTION_DDOT": 0}, "tle": {"line1": "1 31069U 99025BFP 25349.29055965  .00002275  00000+0  48052-3 0  9995", "line2": "2 31069  99.0991 149.8113 0104495  69.7479 291.4914 14.57126924987230"}}, "geometry": {"type": "Point", "coordinates": [158.1248281390436, -36.54543579139266]}}, {"type": "Feature", "properties": {"norad_id": 31071, "name": "FENGYUN 1C DEB", "group": "fengyun-1c-debris", "lat": -1.3911300129690396, "lon": 68.92617754284258, "alt_km": 719.0417289178404, "timestamp": "2025-12-16T15:45:51.326654+00:00", "meta": {"OBJECT_NAME": "FENGYUN 1C DEB", "OBJECT_ID": "1999-025BFR", "EPOCH": "2025-12-15T00:05:47.151744", "MEAN_MOTION": 14.52651665, "ECCENTRICITY": 0.00559333, "INCLINATION": 99.0416, "RA_OF_ASC_NODE": 66.9247, "ARG_OF_PERICENTER": 274.8809, "MEAN_ANOMALY": 84.6, "EPHEMERIS_TYPE": 0, "CLASSIFICATION_TYPE": "U", "NORAD_CAT_ID": 31071, "ELEMENT_SET_NO": 999, "REV_AT_EPOCH": 65527, "BSTAR": 0.00072662083, "MEAN_MOTION_DOT": 2.984e-05, "MEAN_MOTION_DDOT": 0}, "tle": {"line1": "1 31071U 99025BFR 25349.00401796  .00002984  00000+0  72662-3 0  9995", "line2": "2 31071  99.0416  66.9247 0055933 274.8809  84.6000 14.52651665655274"}}, "geometry": {"type": "Point", "coordinates": [68.92617754284258, -1.3911300129690396]}}, {"type": "Feature", "properties": {"norad_id": 31072, "name": "FENGYUN 1C DEB", "group": "fengyun-1c-debris", "lat": -19.810106292220482, "lon": 172.89592233288286, "alt_km": 869.194796324965, "timestamp": "2025-12-16T15:45:51.326664+00:00", "meta": {"OBJECT_NAME": "FENGYUN 1C DEB", "OBJECT_ID": "1999-025BFS", "EPOCH": "2025-12-15T06:50:38.614560", "MEAN_MOTION": 14.2549222, "ECCENTRICITY": 0.02103803, "INCLINATION": 99.3332, "RA_OF_ASC_NODE": 354.8322, "ARG_OF_PERICENTER": 90.5097, "MEAN_ANOMALY": 272.0189, "EPHEMERIS_TYPE": 0, "CLASSIFICATION_TYPE": "U", "NORAD_CAT_ID": 31072, "ELEMENT_SET_NO": 999, "REV_AT_EPOCH": 96679, "BSTAR": 0.00049606226, "MEAN_MOTION_DOT": 1.426e-05, "MEAN_MOTION_DDOT": 0}, "tle": {"line1": "1 31072U 99025BFS 25349.28516915  .00001426  00000+0  49606-3 0  9998", "line2": "2 31072  99.3332 354.8322 0210380  90.5097 272.0189 14.25492220966792"}}, "geometry": {"type": "Point", "coordinates": [172.89592233288286, -19.810106292220482]}}, {"type": "Feature", "properties": {"norad_id": 31073, "name": "FENGYUN 1C DEB", "group": "fengyun-1c-debris", "lat": -2.239566064443151, "lon": 20.18041330627883, "alt_km": 813.4082682095986, "timestamp": "2025-12-16T15:45:51.326673+00:00", "meta": {"OBJECT_NAME": "FENGYUN 1C DEB", "OBJECT_ID": "1999-025BFT", "EPOCH": "2025-12-13T12:45:04.677696", "MEAN_MOTION": 14.24806059, "ECCENTRICITY": 0.00454376, "INCLINATION": 99.2205, "RA_OF_ASC_NODE": 197.2639, "ARG_OF_PERICENTER": 283.3853, "MEAN_ANOMALY": 76.2261, "EPHEMERIS_TYPE": 0, "CLASSIFICATION_TYPE": "U", "NORAD_CAT_ID": 31073, "ELEMENT_SET_NO": 999, "REV_AT_EPOCH": 97094, "BSTAR": 0.0018876513, "MEAN_MOTION_DOT": 4.403e-05, "MEAN_MOTION_DDOT": 0}, "tle": {"line1": "1 31073U 99025BFT 25347.53130414  .00004403  00000+0  18877-2 0  9994", "line2": "2 31073  99.2205 197.2639 0045437 283.3853  76.2261 14.24806059970947"}}, "geometry": {"type": "Point", "coordinates": [20.18041330627883, -2.239566064443151]}}]}